{
  "type": "FeatureCollection",
  "comment": "Key Indian coastal districts for cyclone impact and storm surge modeling. Full dataset can be downloaded from: https://github.com/geohacker/india/raw/master/district/india_district.geojson or Datameet India GIS repository.",
  "features": [
    {
      "type": "Feature",
      "properties": {
        "name": "Puri",
        "state": "Odisha",
        "lat": 19.8135,
        "lon": 85.8312,
        "population_estimate": 1698730,
        "coastal_length_km": 150.0,
        "elevation_m": 5.0
      },
      "geometry": {
        "type": "Polygon",
        "coordinates": [[[85.4, 19.5], [86.2, 19.7], [86.1, 20.1], [85.3, 19.9], [85.4, 19.5]]]
      }
    },
    {
      "type": "Feature",
      "properties": {
        "name": "Jagatsinghpur",
        "state": "Odisha",
        "lat": 20.2547,
        "lon": 86.1711,
        "population_estimate": 1136971,
        "coastal_length_km": 80.0,
        "elevation_m": 4.0
      },
      "geometry": {
        "type": "Polygon",
        "coordinates": [[[86.0, 20.0], [86.6, 20.2], [86.4, 20.5], [85.9, 20.3], [86.0, 20.0]]]
      }
    },
    {
      "type": "Feature",
      "properties": {
        "name": "Kendrapara",
        "state": "Odisha",
        "lat": 20.5024,
        "lon": 86.4223,
        "population_estimate": 1440218,
        "coastal_length_km": 95.0,
        "elevation_m": 4.0
      },
      "geometry": {
        "type": "Polygon",
        "coordinates": [[[86.2, 20.3], [86.9, 20.5], [86.7, 20.8], [86.1, 20.6], [86.2, 20.3]]]
      }
    },
    {
      "type": "Feature",
      "properties": {
        "name": "Ganjam",
        "state": "Odisha",
        "lat": 19.3800,
        "lon": 84.9900,
        "population_estimate": 3529031,
        "coastal_length_km": 60.0,
        "elevation_m": 8.0
      },
      "geometry": {
        "type": "Polygon",
        "coordinates": [[[84.6, 19.0], [85.2, 19.3], [85.0, 19.7], [84.4, 19.4], [84.6, 19.0]]]
      }
    },
    {
      "type": "Feature",
      "properties": {
        "name": "Balasore",
        "state": "Odisha",
        "lat": 21.4934,
        "lon": 86.9135,
        "population_estimate": 2320529,
        "coastal_length_km": 81.0,
        "elevation_m": 6.0
      },
      "geometry": {
        "type": "Polygon",
        "coordinates": [[[86.6, 21.2], [87.3, 21.5], [87.0, 21.8], [86.4, 21.6], [86.6, 21.2]]]
      }
    },
    {
      "type": "Feature",
      "properties": {
        "name": "Visakhapatnam",
        "state": "Andhra Pradesh",
        "lat": 17.6868,
        "lon": 83.2185,
        "population_estimate": 4290589,
        "coastal_length_km": 132.0,
        "elevation_m": 12.0
      },
      "geometry": {
        "type": "Polygon",
        "coordinates": [[[82.8, 17.4], [83.6, 17.7], [83.4, 18.0], [82.6, 17.8], [82.8, 17.4]]]
      }
    },
    {
      "type": "Feature",
      "properties": {
        "name": "Srikakulam",
        "state": "Andhra Pradesh",
        "lat": 18.2949,
        "lon": 83.8938,
        "population_estimate": 2703114,
        "coastal_length_km": 193.0,
        "elevation_m": 10.0
      },
      "geometry": {
        "type": "Polygon",
        "coordinates": [[[83.5, 18.0], [84.3, 18.3], [84.0, 18.7], [83.3, 18.4], [83.5, 18.0]]]
      }
    },
    {
      "type": "Feature",
      "properties": {
        "name": "East Godavari",
        "state": "Andhra Pradesh",
        "lat": 16.9891,
        "lon": 82.2475,
        "population_estimate": 5154296,
        "coastal_length_km": 144.0,
        "elevation_m": 6.0
      },
      "geometry": {
        "type": "Polygon",
        "coordinates": [[[81.8, 16.6], [82.5, 16.9], [82.3, 17.3], [81.6, 17.0], [81.8, 16.6]]]
      }
    },
    {
      "type": "Feature",
      "properties": {
        "name": "South 24 Parganas",
        "state": "West Bengal",
        "lat": 22.1352,
        "lon": 88.5452,
        "population_estimate": 8161961,
        "coastal_length_km": 280.0,
        "elevation_m": 3.0
      },
      "geometry": {
        "type": "Polygon",
        "coordinates": [[[88.0, 21.6], [89.1, 21.8], [88.9, 22.5], [87.8, 22.3], [88.0, 21.6]]]
      }
    },
    {
      "type": "Feature",
      "properties": {
        "name": "Purba Medinipur",
        "state": "West Bengal",
        "lat": 21.9347,
        "lon": 87.7766,
        "population_estimate": 5095875,
        "coastal_length_km": 65.0,
        "elevation_m": 4.0
      },
      "geometry": {
        "type": "Polygon",
        "coordinates": [[[87.4, 21.6], [88.1, 21.8], [87.9, 22.2], [87.2, 22.0], [87.4, 21.6]]]
      }
    },
    {
      "type": "Feature",
      "properties": {
        "name": "Chennai",
        "state": "Tamil Nadu",
        "lat": 13.0827,
        "lon": 80.2707,
        "population_estimate": 8653521,
        "coastal_length_km": 30.0,
        "elevation_m": 6.0
      },
      "geometry": {
        "type": "Polygon",
        "coordinates": [[[80.1, 12.9], [80.4, 13.0], [80.3, 13.3], [80.0, 13.2], [80.1, 12.9]]]
      }
    },
    {
      "type": "Feature",
      "properties": {
        "name": "Nagapattinam",
        "state": "Tamil Nadu",
        "lat": 10.7672,
        "lon": 79.8449,
        "population_estimate": 1616450,
        "coastal_length_km": 187.0,
        "elevation_m": 4.0
      },
      "geometry": {
        "type": "Polygon",
        "coordinates": [[[79.6, 10.5], [80.0, 10.7], [79.9, 11.1], [79.4, 10.9], [79.6, 10.5]]]
      }
    }
  ]
}
